[{"OBJECT_NAME":"STARLINK-34813","OBJECT_ID":"2025-243U","EPOCH":"2026-03-09T17:58:52.252896","MEAN_MOTION":15.30179137,"ECCENTRICITY":0.00010663,"INCLINATION":53.1603,"RA_OF_ASC_NODE":244.9251,"ARG_OF_PERICENTER":75.2464,"MEAN_ANOMALY":284.8655,"EPHEMERIS_TYPE":0,"CLASSIFICATION_TYPE":"U","NORAD_CAT_ID":66195,"ELEMENT_SET_NO":999,"REV_AT_EPOCH":2066,"BSTAR":0.0015327829,"MEAN_MOTION_DOT":0.00045285,"MEAN_MOTION_DDOT":0},{"OBJECT_NAME":"PUCP-SAT 1","OBJECT_ID":"2013-066AC","EPOCH":"2026-03-09T22:02:13.763904","MEAN_MOTION":15.29426022,"ECCENTRICITY":0.00136836,"INCLINATION":97.5787,"RA_OF_ASC_NODE":61.0032,"ARG_OF_PERICENTER":300.1183,"MEAN_ANOMALY":59.87,"EPHEMERIS_TYPE":0,"CLASSIFICATION_TYPE":"U","NORAD_CAT_ID":39442,"ELEMENT_SET_NO":999,"REV_AT_EPOCH":66907,"BSTAR":0.00088755185,"MEAN_MOTION_DOT":0.00025373,"MEAN_MOTION_DDOT":0}]
